NORAD_CAT_ID,OBJECT_NAME,OBJECT_TYPE,EPOCH,MEAN_MOTION,ECCENTRICITY,INCLINATION,RA_OF_ASC_NODE,ARG_OF_PERICENTER,MEAN_ANOMALY,BSTAR,MEAN_MOTION_DOT,MEAN_MOTION_DDOT,TLE_LINE0,TLE_LINE1,TLE_LINE2,SEMIMAJOR_AXIS,PERIOD,APOGEE,PERIGEE,DECAYED
52669.0,STARLINK-3972,PAYLOAD,2023-07-20 21:55:58,15.08836837,0.0001222,53.2179,156.1905,88.1499,271.9633,4.0645e-05,3.59e-06,0.0,0 STARLINK-3972,1 52669U 22053P   23201.91386718  .00000359  00000-0  40645-4 0  9991,2 52669  53.2179 156.1905 0001222  88.1499 271.9633 15.08836837 65696,6917.89,95.438,540.6,538.91,0.0
52669.0,STARLINK-3972,PAYLOAD,2023-07-21 07:28:16,15.08845695,0.0001189,53.2181,154.4058,90.6628,269.4501,0.00010353,1.36e-05,0.0,0 STARLINK-3972,1 52669U 22053P   23202.31130038  .00001360  00000-0  10353-3 0  9993,2 52669  53.2181 154.4058 0001189  90.6628 269.4501 15.08845695 65758,6917.863,95.437,540.551,538.905,0.0
52669.0,STARLINK-3972,PAYLOAD,2023-07-24 05:25:15,15.08839164,0.0001521,53.2167,141.3245,78.9044,281.2119,8.6489e-06,-1.5e-06,0.0,0 STARLINK-3972,1 52669U 22053P   23205.22587184 -.00000150  00000-0  86489-5 0  9996,2 52669  53.2167 141.3245 0001521  78.9044 281.2119 15.08839164 66196,6917.883,95.438,540.8,538.696,0.0
52669.0,STARLINK-3972,PAYLOAD,2023-07-25 05:16:01,15.08844856,0.0001414,53.2165,136.8629,103.0132,257.1018,9.5806e-05,1.237e-05,0.0,0 STARLINK-3972,1 52669U 22053P   23206.21946488  .00001237  00000-0  95806-4 0  9990,2 52669  53.2165 136.8629 0001414 103.0132 257.1018 15.08844856 66349,6917.866,95.437,540.709,538.752,0.0
52669.0,STARLINK-3972,PAYLOAD,2023-07-26 01:56:03,15.08838239,0.0001279,53.2175,132.9962,97.0786,263.0352,3.6107e-05,2.87e-06,0.0,0 STARLINK-3972,1 52669U 22053P   23207.08059279  .00000287  00000-0  36107-4 0  9992,2 52669  53.2175 132.9962 0001279  97.0786 263.0352 15.08838239 66472,6917.886,95.438,540.636,538.866,0.0
52669.0,STARLINK-3972,PAYLOAD,2023-07-27 01:46:47,15.08897528,0.0001057,53.2177,128.5385,85.1993,274.9119,-0.00048699,-8.042e-05,0.0,0 STARLINK-3972,1 52669U 22053P   23208.07416642 -.00008042  00000-0 -48699-3 0  9990,2 52669  53.2177 128.5385 0001057  85.1993 274.9119 15.08897528 66621,6917.705,95.434,540.301,538.838,0.0
52669.0,STARLINK-3972,PAYLOAD,2023-07-27 04:57:34,15.08872085,0.0001625,53.218,127.9427,104.1822,255.9351,-1.5657e-05,-5.38e-06,0.0,0 STARLINK-3972,1 52669U 22053P   23208.20664904 -.00000538  00000-0 -15657-4 0  9992,2 52669  53.2180 127.9427 0001625 104.1822 255.9351 15.08872085 66649,6917.782,95.436,540.771,538.523,0.0
52669.0,STARLINK-3972,PAYLOAD,2023-07-28 00:02:15,15.08826038,0.0001378,53.2185,124.3779,109.0313,251.0828,-3.4029e-05,-8.29e-06,0.0,0 STARLINK-3972,1 52669U 22053P   23209.00156530 -.00000829  00000-0 -34029-4 0  9999,2 52669  53.2185 124.3779 0001378 109.0313 251.0828 15.08826038 66765,6917.923,95.438,540.741,538.835,0.0
52669.0,STARLINK-3972,PAYLOAD,2023-07-28 04:48:24,15.08825914,0.0001196,53.2167,123.4817,79.5025,280.6102,-0.00013473,-2.431e-05,0.0,0 STARLINK-3972,1 52669U 22053P   23209.20028097 -.00002431  00000-0 -13473-3 0  9997,2 52669  53.2167 123.4817 0001196  79.5025 280.6102 15.08825914 66795,6917.923,95.438,540.616,538.961,0.0
52669.0,STARLINK-3972,PAYLOAD,2023-07-28 19:06:52,15.08840949,0.0001097,53.2166,120.8055,74.8319,285.2795,-4.0713e-05,-9.36e-06,0.0,0 STARLINK-3972,1 52669U 22053P   23209.79643730 -.00000936  00000-0 -40713-4 0  9994,2 52669  53.2166 120.8055 0001097  74.8319 285.2795 15.08840949 66887,6917.877,95.437,540.501,538.984,0.0
52669.0,STARLINK-3972,PAYLOAD,2023-07-28 23:53:01,15.08849092,0.0001152,53.2168,119.9133,76.6068,283.5053,0.00010596,1.399e-05,0.0,0 STARLINK-3972,1 52669U 22053P   23209.99515186  .00001399  00000-0  10596-3 0  9996,2 52669  53.2168 119.9133 0001152  76.6068 283.5053 15.08849092 66918,6917.853,95.437,540.515,538.921,0.0
52669.0,STARLINK-3972,PAYLOAD,2023-07-29 11:00:43,15.08841617,0.0001486,53.2172,117.8316,85.0642,275.052,0.00021342,3.11e-05,0.0,0 STARLINK-3972,1 52669U 22053P   23210.45883524  .00003110  00000-0  21342-3 0  9997,2 52669  53.2172 117.8316 0001486  85.0642 275.0520 15.08841617 66982,6917.875,95.437,540.768,538.712,0.0
52669.0,STARLINK-3972,PAYLOAD,2023-07-30 17:13:03,15.08839663,0.0001416,53.2169,112.1822,77.5751,282.54,5.9524e-05,6.6e-06,0.0,0 STARLINK-3972,1 52669U 22053P   23211.71739868  .00000660  00000-0  59524-4 0  9999,2 52669  53.2169 112.1822 0001416  77.5751 282.5400 15.08839663 67178,6917.881,95.438,540.726,538.767,0.0
52669.0,STARLINK-3972,PAYLOAD,2023-07-31 23:25:22,15.08844104,0.0001349,53.2161,106.5313,83.9243,276.1903,7.4563e-05,8.99e-06,0.0,0 STARLINK-3972,1 52669U 22053P   23212.97595762  .00000899  00000-0  74563-4 0  9995,2 52669  53.2161 106.5313 0001349  83.9243 276.1903 15.08844104 67368,6917.868,95.437,540.666,538.8,0.0
52669.0,STARLINK-3972,PAYLOAD,2023-08-02 02:26:56,15.0884255,0.0001221,53.2163,101.4764,83.7285,276.3846,0.00013912,1.927e-05,0.0,0 STARLINK-3972,1 52669U 22053P   23214.10203936  .00001927  00000-0  13912-3 0  9994,2 52669  53.2163 101.4764 0001221  83.7285 276.3846 15.08842550 67537,6917.873,95.437,540.582,538.893,0.0
52669.0,STARLINK-3972,PAYLOAD,2023-08-03 22:57:44,15.08841158,0.0001427,53.2176,93.15,115.7433,244.3706,6.1609e-05,6.93e-06,0.0,0 STARLINK-3972,1 52669U 22053P   23215.95675954  .00000693  00000-0  61609-4 0  9997,2 52669  53.2176  93.1500 0001427 115.7433 244.3706 15.08841158 67819,6917.877,95.437,540.729,538.755,0.0
52669.0,STARLINK-3972,PAYLOAD,2023-08-05 00:23:54,15.08842231,0.0001105,53.217,88.3954,96.9167,263.1951,5.9379e-05,6.57e-06,0.0,0 STARLINK-3972,1 52669U 22053P   23217.01660281  .00000657  00000-0  59379-4 0  9994,2 52669  53.2170  88.3954 0001105  96.9167 263.1951 15.08842231 67970,6917.874,95.437,540.503,538.974,0.0
52669.0,STARLINK-3972,PAYLOAD,2023-08-06 08:11:37,15.08836397,0.0001283,53.2166,82.4462,91.8679,268.246,-3.2315e-05,-8.02e-06,0.0,0 STARLINK-3972,1 52669U 22053P   23218.34140375 -.00000802  00000-0 -32315-4 0  9993,2 52669  53.2166  82.4462 0001283  91.8679 268.2460 15.08836397 68173,6917.891,95.438,540.644,538.869,0.0
52669.0,STARLINK-3972,PAYLOAD,2023-08-06 16:08:33,15.08824499,0.0001031,53.2163,80.9594,100.7153,259.3956,-0.00032415,-5.441e-05,0.0,0 STARLINK-3972,1 52669U 22053P   23218.67260775 -.00005441  00000-0 -32415-3 0  9990,2 52669  53.2163  80.9594 0001031 100.7153 259.3956 15.08824499 68224,6917.928,95.439,540.506,539.08,0.0
52669.0,STARLINK-3972,PAYLOAD,2023-08-07 20:45:30,15.0885241,9.3e-05,53.216,75.6062,107.7486,252.3608,0.0012121,0.00019062,0.0,0 STARLINK-3972,1 52669U 22053P   23219.86493250  .00019062  00000-0  12121-2 0  9991,2 52669  53.2160  75.6062 0000930 107.7486 252.3608 15.08852410 68406,6917.842,95.437,540.351,539.064,0.0
52669.0,STARLINK-3972,PAYLOAD,2023-08-08 07:53:11,15.08858,9.18e-05,53.2165,73.5238,101.8428,258.2667,0.0010428,0.00016355,0.0,0 STARLINK-3972,1 52669U 22053P   23220.32860994  .00016355  00000-0  10428-2 0  9997,2 52669  53.2165  73.5238 0000918 101.8428 258.2667 15.08858000 68478,6917.825,95.436,540.325,539.055,0.0
52669.0,STARLINK-3972,PAYLOAD,2023-08-08 23:47:03,15.08858025,0.0001011,53.2167,70.5509,95.0508,265.06,0.00066469,0.00010312,0.0,0 STARLINK-3972,1 52669U 22053P   23220.99100741  .00010312  00000-0  66469-3 0  9991,2 52669  53.2167  70.5509 0001011  95.0508 265.0600 15.08858025 68577,6917.825,95.436,540.39,538.991,0.0
52669.0,STARLINK-3972,PAYLOAD,2023-08-09 15:40:54,15.08841356,0.0001372,53.2165,67.5785,75.8118,284.3026,0.00038889,5.907e-05,0.0,0 STARLINK-3972,1 52669U 22053P   23221.65341076  .00005907  00000-0  38889-3 0  9992,2 52669  53.2165  67.5785 0001372  75.8118 284.3026 15.08841356 68676,6917.876,95.437,540.69,538.792,0.0
52669.0,STARLINK-3972,PAYLOAD,2023-08-11 01:04:00,15.08852082,8.52e-05,53.2173,61.3318,79.8037,280.3051,0.00026491,3.932e-05,0.0,0 STARLINK-3972,1 52669U 22053P   23223.04444465  .00003932  00000-0  26491-3 0  9995,2 52669  53.2173  61.3318 0000852  79.8037 280.3051 15.08852082 68880,6917.843,95.437,540.298,539.119,0.0
52669.0,STARLINK-3972,PAYLOAD,2023-08-11 05:50:10,15.08833389,0.00017,53.2162,60.4406,89.4671,270.6516,-5.1024e-05,-1.1e-05,0.0,0 STARLINK-3972,1 52669U 22053P   23223.24317350 -.00001100  00000-0 -51024-4 0  9997,2 52669  53.2162  60.4406 0001700  89.4671 270.6516 15.08833389 68911,6917.901,95.438,540.942,538.59,0.0
52669.0,STARLINK-3972,PAYLOAD,2023-08-11 23:19:24,15.088507,8.35e-05,53.2168,57.1698,84.9563,275.1524,0.0002486,3.672e-05,0.0,0 STARLINK-3972,1 52669U 22053P   23223.97180593  .00003672  00000-0  24860-3 0  9995,2 52669  53.2168  57.1698 0000835  84.9563 275.1524 15.08850700 69029,6917.848,95.437,540.29,539.135,0.0
52669.0,STARLINK-3972,PAYLOAD,2023-08-12 05:40:56,15.0884281,8.13e-05,53.2154,55.9776,64.2855,295.8221,9.668e-05,1.251e-05,0.0,0 STARLINK-3972,1 52669U 22053P   23224.23676743  .00001251  00000-0  96680-4 0  9993,2 52669  53.2154  55.9776 0000813  64.2855 295.8221 15.08842810 69068,6917.872,95.437,540.299,539.174,0.0
52669.0,STARLINK-3972,PAYLOAD,2023-08-13 18:14:49,15.08838292,9.26e-05,53.2167,49.1422,90.8842,269.2256,6.2024e-05,6.99e-06,0.0,0 STARLINK-3972,1 52669U 22053P   23225.76029167  .00000699  00000-0  62024-4 0  9994,2 52669  53.2167  49.1422 0000926  90.8842 269.2256 15.08838292 69298,6917.886,95.438,540.391,539.11,0.0
52669.0,STARLINK-3972,PAYLOAD,2023-08-14 22:51:45,15.088443,0.0001036,53.2168,43.79,78.8387,281.2722,0.00022499,3.295e-05,0.0,0 STARLINK-3972,1 52669U 22053P   23226.95261329  .00003295  00000-0  22499-3 0  9990,2 52669  53.2168  43.7900 0001036  78.8387 281.2722 15.08844300 69472,6917.867,95.437,540.449,539.016,0.0
52669.0,STARLINK-3972,PAYLOAD,2023-08-16 11:25:38,15.0884309,0.0001511,53.2157,36.9492,74.2544,285.8615,0.00015999,2.259e-05,0.0,0 STARLINK-3972,1 52669U 22053P   23228.47613443  .00002259  00000-0  15999-3 0  9993,2 52669  53.2157  36.9492 0001511  74.2544 285.8615 15.08843090 69705,6917.871,95.437,540.781,538.691,0.0
